NORAD_CAT_ID,OBJECT_NAME,OBJECT_TYPE,EPOCH,MEAN_MOTION,ECCENTRICITY,INCLINATION,RA_OF_ASC_NODE,ARG_OF_PERICENTER,MEAN_ANOMALY,BSTAR,MEAN_MOTION_DOT,MEAN_MOTION_DDOT,TLE_LINE0,TLE_LINE1,TLE_LINE2,SEMIMAJOR_AXIS,PERIOD,APOGEE,PERIGEE,DECAYED
49171.0,STARLINK-3107,PAYLOAD,2024-07-06 20:56:45,14.98331455,0.0002895,70.0001,34.5514,269.5952,90.4875,5.0505e-05,5.1e-06,0.0,0 STARLINK-3107,1 49171U 21082AT  24188.87275187  .00000510  00000-0  50505-4 0  9998,2 49171  70.0001  34.5514 0002895 269.5952  90.4875 14.98331455155643,6950.188,96.107,574.065,570.041,0.0
49171.0,STARLINK-3107,PAYLOAD,2024-07-06 22:32:53,14.98332292,0.0002888,70.0002,34.3831,269.5678,90.515,5.8432e-05,6.04e-06,0.0,0 STARLINK-3107,1 49171U 21082AT  24188.93951103  .00000604  00000-0  58432-4 0  9995,2 49171  70.0002  34.3831 0002888 269.5678  90.5150 14.98332292155659,6950.186,96.107,574.058,570.044,0.0
49171.0,STARLINK-3107,PAYLOAD,2024-07-07 06:33:34,14.98330973,0.000288,70.0002,33.5413,270.1951,89.8878,3.8666e-05,3.68e-06,0.0,0 STARLINK-3107,1 49171U 21082AT  24189.27331183  .00000368  00000-0  38666-4 0  9997,2 49171  70.0002  33.5413 0002880 270.1951  89.8878 14.98330973155708,6950.19,96.107,574.057,570.053,0.0
49171.0,STARLINK-3107,PAYLOAD,2024-07-07 20:58:46,14.98331811,0.0002914,70.0002,32.0266,268.1905,91.892,3.2279e-05,2.92e-06,0.0,0 STARLINK-3107,1 49171U 21082AT  24189.87415098  .00000292  00000-0  32279-4 0  9991,2 49171  70.0002  32.0266 0002914 268.1905  91.8920 14.98331811155794,6950.187,96.107,574.078,570.027,0.0
49171.0,STARLINK-3107,PAYLOAD,2024-07-08 14:36:15,14.98328244,0.0002895,70.0003,30.1749,268.3531,91.7296,1.2952e-05,6.2e-07,0.0,0 STARLINK-3107,1 49171U 21082AT  24190.60851312  .00000062  00000-0  12952-4 0  9998,2 49171  70.0003  30.1749 0002895 268.3531  91.7296 14.98328244155909,6950.198,96.107,574.075,570.051,0.0
49171.0,STARLINK-3107,PAYLOAD,2024-07-08 21:00:47,14.98329577,0.0002895,70.0003,29.5017,268.1591,91.9237,2.5156e-05,2.07e-06,0.0,0 STARLINK-3107,1 49171U 21082AT  24190.87555218  .00000207  00000-0  25156-4 0  9994,2 49171  70.0003  29.5017 0002895 268.1591  91.9237 14.98329577155944,6950.194,96.107,574.071,570.047,0.0
49171.0,STARLINK-3107,PAYLOAD,2024-07-08 22:36:55,14.98330105,0.0002891,70.0003,29.3333,268.2628,91.82,3.0169e-05,2.67e-06,0.0,0 STARLINK-3107,1 49171U 21082AT  24190.94231172  .00000267  00000-0  30169-4 0  9998,2 49171  70.0003  29.3333 0002891 268.2628  91.8200 14.98330105155950,6950.193,96.107,574.067,570.048,0.0
49171.0,STARLINK-3107,PAYLOAD,2024-07-09 14:38:16,14.98329715,0.0002987,70.0,27.6497,270.0649,90.0168,4.0642e-05,3.92e-06,0.0,0 STARLINK-3107,1 49171U 21082AT  24191.60991140  .00000392  00000-0  40642-4 0  9996,2 49171  70.0000  27.6497 0002987 270.0649  90.0168 14.98329715156050,6950.194,96.107,574.135,569.983,0.0
49171.0,STARLINK-3107,PAYLOAD,2024-07-09 21:02:48,14.9833169,0.0002992,70.0,26.9764,270.0609,90.0207,5.227e-05,5.31e-06,0.0,0 STARLINK-3107,1 49171U 21082AT  24191.87694991  .00000531  00000-0  52270-4 0  9994,2 49171  70.0000  26.9764 0002992 270.0609  90.0207 14.98331690156094,6950.188,96.107,574.132,569.973,0.0
49171.0,STARLINK-3107,PAYLOAD,2024-07-09 22:38:56,14.9833226,0.0002991,70.0,26.8081,270.0905,89.9911,5.7672e-05,5.95e-06,0.0,0 STARLINK-3107,1 49171U 21082AT  24191.94370936  .00000595  00000-0  57672-4 0  9993,2 49171  70.0000  26.8081 0002991 270.0905  89.9911 14.98332260156108,6950.186,96.107,574.13,569.972,0.0
49171.0,STARLINK-3107,PAYLOAD,2024-07-10 13:04:09,14.98325164,0.000303,69.9999,25.2927,269.7076,90.3736,4.3467e-05,4.26e-06,0.0,0 STARLINK-3107,1 49171U 21082AT  24192.54455444  .00000426  00000-0  43467-4 0  9998,2 49171  69.9999  25.2927 0003030 269.7076  90.3736 14.98325164156198,6950.208,96.107,574.179,569.967,0.0
49171.0,STARLINK-3107,PAYLOAD,2024-07-10 22:40:57,14.98331837,0.0003034,69.9999,24.2827,269.7134,90.3677,6.2293e-05,6.5e-06,0.0,0 STARLINK-3107,1 49171U 21082AT  24192.94511018  .00000650  00000-0  62293-4 0  9999,2 49171  69.9999  24.2827 0003034 269.7134  90.3677 14.98331837156250,6950.187,96.107,574.161,569.944,0.0
49171.0,STARLINK-3107,PAYLOAD,2024-07-11 14:42:18,14.98332027,0.0003006,70.0002,22.5995,270.3866,89.6949,7.2486e-05,7.72e-06,0.0,0 STARLINK-3107,1 49171U 21082AT  24193.61270946  .00000772  00000-0  72486-4 0  9996,2 49171  70.0002  22.5995 0003006 270.3866  89.6949 14.98332027156350,6950.187,96.107,574.141,569.962,0.0
49171.0,STARLINK-3107,PAYLOAD,2024-07-11 19:30:42,14.98335414,0.0003018,70.0,22.0942,268.7209,91.3605,6.8993e-05,7.3e-06,0.0,0 STARLINK-3107,1 49171U 21082AT  24193.81298689  .00000730  00000-0  68993-4 0  9994,2 49171  70.0000  22.0942 0003018 268.7209  91.3605 14.98335414156385,6950.176,96.107,574.139,569.944,0.0
49171.0,STARLINK-3107,PAYLOAD,2024-07-12 13:08:10,14.98330942,0.0002965,70.0004,20.2425,268.938,91.1439,6.2712e-05,6.55e-06,0.0,0 STARLINK-3107,1 49171U 21082AT  24194.54734948  .00000655  00000-0  62712-4 0  9997,2 49171  70.0004  20.2425 0002965 268.9380  91.1439 14.98330942156493,6950.19,96.107,574.116,569.994,0.0
49171.0,STARLINK-3107,PAYLOAD,2024-07-12 14:44:19,14.98330463,0.0002972,70.0002,20.0742,268.8755,91.2064,5.7122e-05,5.89e-06,0.0,0 STARLINK-3107,1 49171U 21082AT  24194.61410986  .00000589  00000-0  57122-4 0  9993,2 49171  70.0002  20.0742 0002972 268.8755  91.2064 14.98330463156509,6950.191,96.107,574.122,569.991,0.0
49171.0,STARLINK-3107,PAYLOAD,2024-07-12 22:44:59,14.98331762,0.0002956,70.0005,19.2333,267.0106,93.0715,4.3794e-05,4.3e-06,0.0,0 STARLINK-3107,1 49171U 21082AT  24194.94790892  .00000430  00000-0  43794-4 0  9991,2 49171  70.0005  19.2333 0002956 267.0106  93.0715 14.98331762156552,6950.187,96.107,574.107,569.998,0.0
49171.0,STARLINK-3107,PAYLOAD,2024-07-13 14:46:19,14.98333319,0.0002924,70.0006,17.5499,267.8625,92.22,2.1788e-05,1.67e-06,0.0,0 STARLINK-3107,1 49171U 21082AT  24195.61550817  .00000167  00000-0  21788-4 0  9993,2 49171  70.0006  17.5499 0002924 267.8625  92.2200 14.98333319156657,6950.183,96.107,574.08,570.015,0.0
49171.0,STARLINK-3107,PAYLOAD,2024-07-13 21:10:52,14.98334058,0.0002927,70.0006,16.8766,267.9706,92.1117,3.0514e-05,2.71e-06,0.0,0 STARLINK-3107,1 49171U 21082AT  24195.88254732  .00000271  00000-0  30514-4 0  9992,2 49171  70.0006  16.8766 0002927 267.9706  92.1117 14.98334058156691,6950.18,96.107,574.08,570.011,0.0
49171.0,STARLINK-3107,PAYLOAD,2024-07-14 14:48:20,14.98332386,0.000296,70.0006,15.025,267.4425,92.6395,6.6303e-05,6.98e-06,0.0,0 STARLINK-3107,1 49171U 21082AT  24196.61690623  .00000698  00000-0  66303-4 0  9995,2 49171  70.0006  15.0250 0002960 267.4425  92.6395 14.98332386156808,6950.186,96.107,574.108,569.993,0.0
49171.0,STARLINK-3107,PAYLOAD,2024-07-14 21:12:52,14.98335767,0.0002948,70.0006,14.3516,267.9891,92.093,9.9586e-05,1.096e-05,0.0,0 STARLINK-3107,1 49171U 21082AT  24196.88394296  .00001096  00000-0  99586-4 0  9993,2 49171  70.0006  14.3516 0002948 267.9891  92.0930 14.98335767156842,6950.175,96.107,574.089,569.991,0.0
49171.0,STARLINK-3107,PAYLOAD,2024-07-15 13:14:13,14.98330064,0.0002881,70.0007,12.6684,267.4367,92.6462,2.6524e-05,2.24e-06,0.0,0 STARLINK-3107,1 49171U 21082AT  24197.55154813  .00000224  00000-0  26524-4 0  9991,2 49171  70.0007  12.6684 0002881 267.4367  92.6462 14.98330064156941,6950.193,96.107,574.06,570.055,0.0
49171.0,STARLINK-3107,PAYLOAD,2024-07-15 14:50:21,14.98330263,0.0002882,70.0008,12.5001,267.3991,92.6839,2.7783e-05,2.39e-06,0.0,0 STARLINK-3107,1 49171U 21082AT  24197.61830793  .00000239  00000-0  27783-4 0  9990,2 49171  70.0008  12.5001 0002882 267.3991  92.6839 14.98330263156957,6950.192,96.107,574.06,570.054,0.0
49171.0,STARLINK-3107,PAYLOAD,2024-07-15 21:14:53,14.98331038,0.0002922,70.0008,11.8269,270.2261,89.8563,3.3224e-05,3.03e-06,0.0,0 STARLINK-3107,1 49171U 21082AT  24197.88534698  .00000303  00000-0  33224-4 0  9993,2 49171  70.0008  11.8269 0002922 270.2261  89.8563 14.98331038156990,6950.19,96.107,574.086,570.024,0.0
49171.0,STARLINK-3107,PAYLOAD,2024-07-16 13:16:14,14.98322902,0.0003103,70.0003,10.1426,270.0524,90.028,0.00019401,2.222e-05,0.0,0 STARLINK-3107,1 49171U 21082AT  24198.55294765  .00002222  00000-0  19401-3 0  9998,2 49171  70.0003  10.1426 0003103 270.0524  90.0280 14.98322902157096,6950.215,96.107,574.236,569.923,0.0
49171.0,STARLINK-3107,PAYLOAD,2024-07-16 14:52:22,14.98332587,0.0003066,70.0004,9.9744,270.9628,89.118,7.1703e-05,7.63e-06,0.0,0 STARLINK-3107,1 49171U 21082AT  24198.61970422  .00000763  00000-0  71703-4 0  9998,2 49171  70.0004   9.9744 0003066 270.9628  89.1180 14.98332587157108,6950.185,96.107,574.181,569.919,0.0
49171.0,STARLINK-3107,PAYLOAD,2024-07-16 19:40:46,14.98338832,0.0003086,70.0004,9.4694,271.1981,88.8824,6.4747e-05,6.8e-06,0.0,0 STARLINK-3107,1 49171U 21082AT  24198.81997980  .00000680  00000-0  64747-4 0  9996,2 49171  70.0004   9.4694 0003086 271.1981  88.8824 14.98338832157137,6950.166,96.106,574.175,569.886,0.0
49171.0,STARLINK-3107,PAYLOAD,2024-07-16 21:16:54,14.98340572,0.0003086,70.0005,9.3011,271.2749,88.8057,8.4283e-05,9.13e-06,0.0,0 STARLINK-3107,1 49171U 21082AT  24198.88673799  .00000913  00000-0  84283-4 0  9998,2 49171  70.0005   9.3011 0003086 271.2749  88.8057 14.98340572157146,6950.16,96.106,574.17,569.88,0.0
49171.0,STARLINK-3107,PAYLOAD,2024-07-17 13:18:17,14.98220049,0.0002685,70.0019,7.6177,282.9415,77.1444,0.0018746,0.00022282,0.0,0 STARLINK-3107,1 49171U 21082AT  24199.55436674  .00022282  00000-0  18746-2 0  9994,2 49171  70.0019   7.6177 0002685 282.9415  77.1444 14.98220049157246,6950.533,96.114,574.264,570.532,0.0
49171.0,STARLINK-3107,PAYLOAD,2024-07-17 14:54:25,14.98227043,0.0002684,70.002,7.4497,284.8791,75.2071,0.0017578,0.00020887,0.0,0 STARLINK-3107,1 49171U 21082AT  24199.62112897  .00020887  00000-0  17578-2 0  9991,2 49171  70.0020   7.4497 0002684 284.8791  75.2071 14.98227043157255,6950.511,96.114,574.242,570.511,0.0
